{"type": "FeatureCollection", "features": [ {"type": "Feature", "properties": {"norad_id": 43108, "name": "BEIDOU-3 M8 (C28)", "group": "gnss", "lat": -23.632339492031818, "lon": 147.1167992250462, "alt_km": 21525.80468489445, "timestamp": "2025-12-08T10:52:03.189811+00:00", "meta": {"OBJECT_NAME": "BEIDOU-3 M8 (C28)", "OBJECT_ID": "2018-003B", "EPOCH": "2025-12-07T14:28:44.838336", "MEAN_MOTION": 1.86230783, "ECCENTRICITY": 0.00047344, "INCLINATION": 54.4942, "RA_OF_ASC_NODE": 308.9763, "ARG_OF_PERICENTER": 275.286, "MEAN_ANOMALY": 84.6457, "EPHEMERIS_TYPE": 0, "CLASSIFICATION_TYPE": "U", "NORAD_CAT_ID": 43108, "ELEMENT_SET_NO": 999, "REV_AT_EPOCH": 5379, "BSTAR": 0, "MEAN_MOTION_DOT": -7.2e-07, "MEAN_MOTION_DDOT": 0}, "tle": {"line1": "1 43108U 18003B   25341.60329674 -.00000072  00000+0  00000+0 0  9998", "line2": "2 43108  54.4942 308.9763 0004734 275.2860  84.6457  1.86230783 53796"}}, "geometry": {"type": "Point", "coordinates": [147.1167992250462, -23.632339492031818]}}, {"type": "Feature", "properties": {"norad_id": 43207, "name": "BEIDOU-3 M4 (C22)", "group": "gnss", "lat": -56.36581736111736, "lon": -14.678825511916273, "alt_km": 21536.445393492035, "timestamp": "2025-12-08T10:52:03.189831+00:00", "meta": {"OBJECT_NAME": "BEIDOU-3 M4 (C22)", "OBJECT_ID": "2018-018A", "EPOCH": "2025-12-02T03:19:43.852800", "MEAN_MOTION": 1.86230706, "ECCENTRICITY": 0.00040749, "INCLINATION": 56.4768, "RA_OF_ASC_NODE": 69.6557, "ARG_OF_PERICENTER": 15.1369, "MEAN_ANOMALY": 344.8773, "EPHEMERIS_TYPE": 0, "CLASSIFICATION_TYPE": "U", "NORAD_CAT_ID": 43207, "ELEMENT_SET_NO": 999, "REV_AT_EPOCH": 5307, "BSTAR": 0, "MEAN_MOTION_DOT": -4.5e-07, "MEAN_MOTION_DDOT": 0}, "tle": {"line1": "1 43207U 18018A   25336.13870200 -.00000045  00000+0  00000+0 0  9992", "line2": "2 43207  56.4768  69.6557 0004074  15.1369 344.8773  1.86230706 53076"}}, "geometry": {"type": "Point", "coordinates": [-14.678825511916273, -56.36581736111736]}}, {"type": "Feature", "properties": {"norad_id": 43208, "name": "BEIDOU-3 M3 (C21)", "group": "gnss", "lat": -38.70546064963335, "lon": -78.51398321353324, "alt_km": 21532.4806870205, "timestamp": "2025-12-08T10:52:03.189849+00:00", "meta": {"OBJECT_NAME": "BEIDOU-3 M3 (C21)", "OBJECT_ID": "2018-018B", "EPOCH": "2025-12-03T06:41:57.693408", "MEAN_MOTION": 1.86230862, "ECCENTRICITY": 0.0006282, "INCLINATION": 56.4772, "RA_OF_ASC_NODE": 69.6218, "ARG_OF_PERICENTER": 317.5873, "MEAN_ANOMALY": 42.3668, "EPHEMERIS_TYPE": 0, "CLASSIFICATION_TYPE": "U", "NORAD_CAT_ID": 43208, "ELEMENT_SET_NO": 999, "REV_AT_EPOCH": 5309, "BSTAR": 0, "MEAN_MOTION_DOT": -4.9e-07, "MEAN_MOTION_DDOT": 0}, "tle": {"line1": "1 43208U 18018B   25337.27913997 -.00000049  00000+0  00000+0 0  9994", "line2": "2 43208  56.4772  69.6218 0006282 317.5873  42.3668  1.86230862 53096"}}, "geometry": {"type": "Point", "coordinates": [-78.51398321353324, -38.70546064963335]}}, {"type": "Feature", "properties": {"norad_id": 43245, "name": "BEIDOU-3 M9 (C29)", "group": "gnss", "lat": 53.90214283332074, "lon": 25.97622610821298, "alt_km": 21526.485151345045, "timestamp": "2025-12-08T10:52:03.189867+00:00", "meta": {"OBJECT_NAME": "BEIDOU-3 M9 (C29)", "OBJECT_ID": "2018-029A", "EPOCH": "2025-12-07T06:05:41.943552", "MEAN_MOTION": 1.86227905, "ECCENTRICITY": 0.00016267, "INCLINATION": 54.3707, "RA_OF_ASC_NODE": 306.6586, "ARG_OF_PERICENTER": 277.0016, "MEAN_ANOMALY": 82.965, "EPHEMERIS_TYPE": 0, "CLASSIFICATION_TYPE": "U", "NORAD_CAT_ID": 43245, "ELEMENT_SET_NO": 999, "REV_AT_EPOCH": 5232, "BSTAR": 0, "MEAN_MOTION_DOT": -7e-07, "MEAN_MOTION_DDOT": 0}, "tle": {"line1": "1 43245U 18029A   25341.25395768 -.00000070  00000+0  00000+0 0  9994", "line2": "2 43245  54.3707 306.6586 0001626 277.0016  82.9650  1.86227905 52320"}}, "geometry": {"type": "Point", "coordinates": [25.97622610821298, 53.90214283332074]}}, {"type": "Feature", "properties": {"norad_id": 43246, "name": "BEIDOU-3 M10 (C30)", "group": "gnss", "lat": 40.32564082652314, "lon": 89.15097909293212, "alt_km": 21530.130240029415, "timestamp": "2025-12-08T10:52:03.189887+00:00", "meta": {"OBJECT_NAME": "BEIDOU-3 M10 (C30)", "OBJECT_ID": "2018-029B", "EPOCH": "2025-12-07T04:32:29.911776", "MEAN_MOTION": 1.86228892, "ECCENTRICITY": 0.00040611, "INCLINATION": 54.3683, "RA_OF_ASC_NODE": 306.6886, "ARG_OF_PERICENTER": 0.524, "MEAN_ANOMALY": 359.4613, "EPHEMERIS_TYPE": 0, "CLASSIFICATION_TYPE": "U", "NORAD_CAT_ID": 43246, "ELEMENT_SET_NO": 999, "REV_AT_EPOCH": 5230, "BSTAR": 0, "MEAN_MOTION_DOT": -7e-07, "MEAN_MOTION_DDOT": 0}, "tle": {"line1": "1 43246U 18029B   25341.18923509 -.00000070  00000+0  00000+0 0  9997", "line2": "2 43246  54.3683 306.6886 0004061   0.5240 359.4613  1.86228892 52306"}}, "geometry": {"type": "Point", "coordinates": [89.15097909293212, 40.32564082652314]}}, {"type": "Feature", "properties": {"norad_id": 43286, "name": "IRNSS-1I", "group": "gnss", "lat": -17.69020419299416, "lon": -68.00254099380957, "alt_km": 35715.3275238681, "timestamp": "2025-12-08T10:52:03.189908+00:00", "meta": {"OBJECT_NAME": "IRNSS-1I", "OBJECT_ID": "2018-035A", "EPOCH": "2025-12-07T20:44:32.673984", "MEAN_MOTION": 1.00269085, "ECCENTRICITY": 0.00219299, "INCLINATION": 29.1385, "RA_OF_ASC_NODE": 77.1731, "ARG_OF_PERICENTER": 181.2064, "MEAN_ANOMALY": 184.6969, "EPHEMERIS_TYPE": 0, "CLASSIFICATION_TYPE": "U", "NORAD_CAT_ID": 43286, "ELEMENT_SET_NO": 999, "REV_AT_EPOCH": 2816, "BSTAR": 0, "MEAN_MOTION_DOT": 7.4e-07, "MEAN_MOTION_DDOT": 0}, "tle": {"line1": "1 43286U 18035A   25341.86426706  .00000074  00000+0  00000+0 0  9993", "line2": "2 43286  29.1385  77.1731 0021929 181.2064 184.6969  1.00269085 28165"}}, "geometry": {"type": "Point", "coordinates": [-68.00254099380957, -17.69020419299416]}}, {"type": "Feature", "properties": {"norad_id": 43508, "name": "COSMOS 2527 (756)", "group": "gnss", "lat": -65.14528331102177, "lon": 0.475719375017918, "alt_km": 19121.96645325123, "timestamp": "2025-12-08T10:52:03.189926+00:00", "meta": {"OBJECT_NAME": "COSMOS 2527 (756)", "OBJECT_ID": "2018-053A", "EPOCH": "2025-12-07T03:45:49.475232", "MEAN_MOTION": 2.13102044, "ECCENTRICITY": 0.00087312, "INCLINATION": 65.4694, "RA_OF_ASC_NODE": 80.3184, "ARG_OF_PERICENTER": 225.1381, "MEAN_ANOMALY": 134.8008, "EPHEMERIS_TYPE": 0, "CLASSIFICATION_TYPE": "U", "NORAD_CAT_ID": 43508, "ELEMENT_SET_NO": 999, "REV_AT_EPOCH": 5818, "BSTAR": 0, "MEAN_MOTION_DOT": -1.2e-07, "MEAN_MOTION_DDOT": 0}, "tle": {"line1": "1 43508U 18053A   25341.15682263 -.00000012  00000+0  00000+0 0  9997", "line2": "2 43508  65.4694  80.3184 0008731 225.1381 134.8008  2.13102044 58184"}}, "geometry": {"type": "Point", "coordinates": [0.475719375017918, -65.14528331102177]}}, {"type": "Feature", "properties": {"norad_id": 43539, "name": "BEIDOU-2 IGSO-7 (C16)", "group": "gnss", "lat": -5.040402709931177, "lon": -11.773324893642293, "alt_km": 35533.94557009044, "timestamp": "2025-12-08T10:52:03.189944+00:00", "meta": {"OBJECT_NAME": "BEIDOU-2 IGSO-7 (C16)", "OBJECT_ID": "2018-057A", "EPOCH": "2025-12-07T10:43:46.663104", "MEAN_MOTION": 1.0025846, "ECCENTRICITY": 0.00925092, "INCLINATION": 55.1739, "RA_OF_ASC_NODE": 164.7176, "ARG_OF_PERICENTER": 235.2145, "MEAN_ANOMALY": 308.6901, "EPHEMERIS_TYPE": 0, "CLASSIFICATION_TYPE": "U", "NORAD_CAT_ID": 43539, "ELEMENT_SET_NO": 999, "REV_AT_EPOCH": 2720, "BSTAR": 0, "MEAN_MOTION_DOT": -6.7e-07, "MEAN_MOTION_DDOT": 0}, "tle": {"line1": "1 43539U 18057A   25341.44706786 -.00000067  00000+0  00000+0 0  9994", "line2": "2 43539  55.1739 164.7176 0092509 235.2145 308.6901  1.00258460 27209"}}, "geometry": {"type": "Point", "coordinates": [-11.773324893642293, -5.040402709931177]}}, {"type": "Feature", "properties": {"norad_id": 43564, "name": "GSAT0221 (GALILEO 25)", "group": "gnss", "lat": 14.457360067731974, "lon": -3.5070162734247217, "alt_km": 23222.373509744648, "timestamp": "2025-12-08T10:52:03.189962+00:00", "meta": {"OBJECT_NAME": "GSAT0221 (GALILEO 25)", "OBJECT_ID": "2018-060A", "EPOCH": "2025-12-06T15:57:28.986048", "MEAN_MOTION": 1.70475679, "ECCENTRICITY": 0.00066883, "INCLINATION": 57.2291, "RA_OF_ASC_NODE": 346.9817, "ARG_OF_PERICENTER": 281.5609, "MEAN_ANOMALY": 78.3858, "EPHEMERIS_TYPE": 0, "CLASSIFICATION_TYPE": "U", "NORAD_CAT_ID": 43564, "ELEMENT_SET_NO": 999, "REV_AT_EPOCH": 4588, "BSTAR": 0, "MEAN_MOTION_DOT": -8.1e-07, "MEAN_MOTION_DDOT": 0}, "tle": {"line1": "1 43564U 18060A   25340.66491882 -.00000081  00000+0  00000+0 0  9993", "line2": "2 43564  57.2291 346.9817 0006688 281.5609  78.3858  1.70475679 45887"}}, "geometry": {"type": "Point", "coordinates": [-3.5070162734247217, 14.457360067731974]}}, {"type": "Feature", "properties": {"norad_id": 43565, "name": "GSAT0222 (GALILEO 26)", "group": "gnss", "lat": -48.28140027639331, "lon": -146.80223934617436, "alt_km": 23210.158739809234, "timestamp": "2025-12-08T10:52:03.189981+00:00", "meta": {"OBJECT_NAME": "GSAT0222 (GALILEO 26)", "OBJECT_ID": "2018-060B", "EPOCH": "2025-12-05T17:03:57.438144", "MEAN_MOTION": 1.70475397, "ECCENTRICITY": 0.00061787, "INCLINATION": 57.2328, "RA_OF_ASC_NODE": 347.0105, "ARG_OF_PERICENTER": 261.4004, "MEAN_ANOMALY": 98.5552, "EPHEMERIS_TYPE": 0, "CLASSIFICATION_TYPE": "U", "NORAD_CAT_ID": 43565, "ELEMENT_SET_NO": 999, "REV_AT_EPOCH": 4591, "BSTAR": 0, "MEAN_MOTION_DOT": -7.7e-07, "MEAN_MOTION_DDOT": 0}, "tle": {"line1": "1 43565U 18060B   25339.71108146 -.00000077  00000+0  00000+0 0  9991", "line2": "2 43565  57.2328 347.0105 0006178 261.4004  98.5552  1.70475397 45917"}}, "geometry": {"type": "Point", "coordinates": [-146.80223934617436, -48.28140027639331]}}]}